[Satellite]
VERSION=1.1
NAME=IRIDIUM 45 [+]
NICKNAME=IRIDIUM 45 [+]
TLE1=1 25104U 97082A   17186.27154142  .00000152  00000-0  47371-4 0  9991
TLE2=2 25104  86.3965 279.6514 0001563 114.0979 246.0380 14.34219331 22706
